#aV2010  9 26  0  0   .00000000      96 DD+AD WGS84 FIT  NGA
## 1603       .00000000   900.00000000 55465  .0000000000000
+   32     1  2  3  4  5  6  7  8  9 10 11 12 13 14 15 16 17
+         18 19 20 21 22 23 24 25 26 27 28 29 30 31 32  0  0
+          0  0  0  0  0  0  0  0  0  0  0  0  0  0  0  0  0
+          0  0  0  0  0  0  0  0  0  0  0  0  0  0  0  0  0
+          0  0  0  0  0  0  0  0  0  0  0  0  0  0  0  0  0
++         0  0  0  0  0  0  0  0  0  0  0  0  0  0  0  0  0
++         0  0  0  0  0  0  0  0  0  0  0  0  0  0  0  0  0
++         0  0  0  0  0  0  0  0  0  0  0  0  0  0  0  0  0
++         0  0  0  0  0  0  0  0  0  0  0  0  0  0  0  0  0
++         0  0  0  0  0  0  0  0  0  0  0  0  0  0  0  0  0
%c cc cc ccc ccc cccc cccc cccc cccc ccccc ccccc ccccc ccccc
%c cc cc ccc ccc cccc cccc cccc cccc ccccc ccccc ccccc ccccc
%f  0.0000000  0.000000000  0.00000000000  0.000000000000000
%f  0.0000000  0.000000000  0.00000000000  0.000000000000000
%i    0    0    0    0      0      0      0      0         0
%i    0    0    0    0      0      0      0      0         0
/*      NGA, ST. LOUIS,MO.                                  
/*   EPHEMERIS COMPUTED FROM  3 DAYS OF DATA                
/* CCCCCCCCCCCCCCCCCCCCCCCCCCCCCCCCCCCCCCCCCCCCCCCCCCCCCCCCC
/* CCCCCCCCCCCCCCCCCCCCCCCCCCCCCCCCCCCCCCCCCCCCCCCCCCCCCCCCC
*  2010  9 26  3 45   .00000000                                                 
P  1 -25625.496125  -4100.079683   5837.113222   -166.253326                    
V  1  -6395.832029  -4696.313800 -30626.603195      -.038391                    
P  2  22016.941639 -10892.025828  -9480.325433    291.167577                    
V  2  -6619.535461  10849.654149 -28309.947611       .027402                    
P  3 -13085.467553   9527.029628  20623.682532    613.327630                    
V  3  -9656.190134 -25522.614625   5892.535209       .051127                    
P  4  19908.433955   -157.527722 -17933.236940    178.829022                    
V  4 -15560.532628  16120.170045 -17240.362179       .092116                    
P  5  20105.147398  -5646.723381  16457.334474    -42.035585                    
V  5  19278.821012   8260.722955 -20611.503169      -.055787                    
P  6 -15370.725576   3880.233359  21476.246645    479.242056                    
V  6  -6907.977546 -26085.466475    -59.208636      -.147561                    
P  7   3421.231081  15969.047845  20898.457372     -1.711929                    
V  7 -20446.839159  16968.784060  -9807.611641       .002031                    
P  8  13979.658098   6956.759251  21577.326567      6.758003                    
V  8 -21480.969562  16696.313231   8002.388375      -.000019                    
P  9  13680.201989 -21118.216261  -9018.974789     32.725519                    
V  9   9045.574698  -5953.516442  29462.948616       .022346                    
P 10  25711.973419   5855.839565   4303.385432    -53.446452                    
V 10   4398.931082   4502.691892 -30695.485251      -.012062                    
P 11  -6177.358292  23661.589261 -10202.780926    -92.208162                    
V 11 -11067.464475   7991.179020  26337.667082      -.026601                    
P 12   4706.499914 -14198.648905 -21912.731638    -69.377488                    
V 12  26350.544004   9083.431263    -77.843021       .036907                    
P 13   5209.781666  25862.155097   2705.218554    296.494271                    
V 13  -1373.606102   3807.794790 -32220.812494      -.009572                    
P 14 -14198.501857 -13146.135779 -18103.800551     92.201657                    
V 14  -2444.603658 -23090.459311  18388.368631       .036354                    
P 15   6864.318388 -20255.080741  15688.189656   -204.081984                    
V 15   6546.267278  18982.983476  21797.447780       .051624                    
P 16 -23774.511470    188.641364  12152.705787   -111.868179                    
V 16 -13729.448592  -6910.759571 -26546.296324      -.033971                    
P 17  14187.526481  15882.139526 -15900.403163    172.109882                    
V 17   1834.646282  20301.523100  21553.500343       .013056                    
P 18 -14971.826675 -16776.092700  14718.977428     95.240729                    
V 18  17841.342287   3841.362277  22608.004112       .022311                    
P 19  -8303.829394  19930.878194  15260.984124    -69.015801                    
V 19  -4684.564232 -19059.489217  22676.132823      -.032133                    
P 20  -3936.187551  15333.344229 -21462.908689     50.761961                    
V 20 -25960.479426  -7551.443428   -578.588546      -.003252                    
P 21  -7100.226821 -14700.456173  21232.224745    -90.802070                    
V 21  20415.764157 -16660.952486  -5416.741540      -.026668                    
P 22 -23368.336037 -11949.689480   4573.664969    162.273552                    
V 22   6454.523946  -1410.544749  30350.215159      -.008628                    
P 23   -393.901517  25247.517371  -7664.852568    351.991009                    
V 23  -4586.345849  -9088.698378 -30059.656177      -.018614                    
P 24 -22119.168849  13849.889741   4269.247601    324.858437                    
V 24   2113.417975  -5958.382933  31031.989828       .032398                    
P 25  -7880.801558 -16555.615202 -19234.830065    -42.815178                    
V 25  23665.905378   6007.142820 -14896.014020      -.015334                    
P 26  12136.707761 -10547.997623  20478.161708    -17.918674                    
V 26   4647.588627  26959.435413  11242.753588      -.071928                    
P 27  17818.590920 -19371.331612  -1863.505365    192.470922                    
V 27   3990.933583   -519.218175  32199.134474       .035811                    
P 28  21676.168313  13757.647065   7845.692822     -2.130043                    
V 28  -9344.388815  -1323.972100  29727.370518       .015267                    
P 29  -5543.930300 -25960.441778   1477.774094    151.965585                    
V 29   2430.867016  -2224.211746 -31658.088827       .026020                    
P 30  -8961.758167 -16546.777224 -19167.202649    281.672920                    
V 30  22958.070260   5101.947239 -15440.070410       .033799                    
P 31 -20545.036001   3446.274588 -16375.420977     -6.144767                    
V 31  14818.957446 -15051.092081 -21318.240577       .032238                    
P 32 -10615.521251  11569.814818 -21041.747135    -94.105750                    
V 32 -25026.987769 -11577.949819   6521.191654      -.089782                    
EOF
